{
  "type": "FeatureCollection",
  "generator": "overpass-turbo",
  "copyright": "The data included in this document is from www.openstreetmap.org. The data is made available under ODbL.",
  "timestamp": "2026-02-25T11:21:06Z",
  "features": [
    {
      "type": "Feature",
      "properties": {
        "@id": "way/23481497",
        "highway": "tertiary",
        "name": "Rue Édouard Vaillant",
        "sidewalk": "both"
      },
      "geometry": {
        "type": "LineString",
        "coordinates": [
          [
            2.4985328,
            48.8936678
          ],
          [
            2.4984463,
            48.8936797
          ],
          [
            2.4974808,
            48.893813
          ],
          [
            2.4965321,
            48.8939439
          ],
          [
            2.4961546,
            48.893996
          ],
          [
            2.4956249,
            48.8940692
          ],
          [
            2.4955412,
            48.8940807
          ],
          [
            2.4948827,
            48.8941716
          ],
          [
            2.494321,
            48.8942491
          ],
          [
            2.493911,
            48.8943057
          ],
          [
            2.4930528,
            48.8944242
          ],
          [
            2.4927423,
            48.894467
          ],
          [
            2.4923982,
            48.8945145
          ],
          [
            2.4912658,
            48.8946708
          ],
          [
            2.4908361,
            48.8947301
          ],
          [
            2.490513,
            48.8947747
          ],
          [
            2.4899181,
            48.8948568
          ],
          [
            2.489648,
            48.8948941
          ],
          [
            2.4895917,
            48.8948984
          ],
          [
            2.4895358,
            48.8948986
          ],
          [
            2.4892829,
            48.8948813
          ],
          [
            2.4891953,
            48.8948753
          ],
          [
            2.4890861,
            48.8948906
          ],
          [
            2.4888774,
            48.8949197
          ],
          [
            2.4887236,
            48.8949656
          ],
          [
            2.4885989,
            48.8950099
          ],
          [
            2.4884922,
            48.8950438
          ],
          [
            2.4882399,
            48.8950877
          ],
          [
            2.4875586,
            48.8951828
          ],
          [
            2.4874361,
            48.8952016
          ],
          [
            2.4871856,
            48.8952403
          ],
          [
            2.4869344,
            48.8952704
          ],
          [
            2.4864301,
            48.8953307
          ],
          [
            2.4862687,
            48.8953539
          ],
          [
            2.4859278,
            48.895402
          ],
          [
            2.4858114,
            48.8954185
          ],
          [
            2.4851384,
            48.8955141
          ],
          [
            2.4850328,
            48.8955281
          ],
          [
            2.4847189,
            48.8955696
          ],
          [
            2.4843997,
            48.8956118
          ],
          [
            2.4836641,
            48.8957112
          ],
          [
            2.4835497,
            48.8957269
          ],
          [
            2.4829406,
            48.8958128
          ],
          [
            2.4825986,
            48.8958628
          ],
          [
            2.4823135,
            48.8959066
          ],
          [
            2.4821858,
            48.8959215
          ],
          [
            2.4816032,
            48.8960012
          ],
          [
            2.4813067,
            48.8960417
          ],
          [
            2.4810292,
            48.8960796
          ],
          [
            2.4809282,
            48.8960935
          ],
          [
            2.4808646,
            48.8961022
          ],
          [
            2.4799967,
            48.8962213
          ],
          [
            2.4798776,
            48.8962426
          ],
          [
            2.4798176,
            48.8962508
          ]
        ]
      },
      "id": "way/23481497"
    },
    {
      "type": "Feature",
      "properties": {
        "@id": "way/35321895",
        "alt_name": "Rue L A Blanqui",
        "highway": "tertiary",
        "name": "Rue Louis-Auguste Blanqui",
        "ref:FR:FANTOIR": "930570085S"
      },
      "geometry": {
        "type": "LineString",
        "coordinates": [
          [
            2.478602,
            48.9003766
          ],
          [
            2.4786817,
            48.9003663
          ],
          [
            2.4787551,
            48.9003579
          ],
          [
            2.4793206,
            48.9002751
          ],
          [
            2.479434,
            48.9002585
          ],
          [
            2.4795365,
            48.9002441
          ],
          [
            2.480025,
            48.9001754
          ],
          [
            2.4812914,
            48.8998889
          ],
          [
            2.4814033,
            48.8998661
          ],
          [
            2.4814891,
            48.8998471
          ]
        ]
      },
      "id": "way/35321895"
    },
    {
      "type": "Feature",
      "properties": {
        "@id": "way/45272173",
        "highway": "tertiary",
        "name": "Avenue Henri Barbusse",
        "oneway": "yes",
        "ref": "D 10"
      },
      "geometry": {
        "type": "LineString",
        "coordinates": [
          [
            2.490644,
            48.9008105
          ],
          [
            2.4905168,
            48.9008573
          ],
          [
            2.4901446,
            48.9010047
          ],
          [
            2.4899397,
            48.9010813
          ],
          [
            2.4895929,
            48.9012104
          ],
          [
            2.489475,
            48.9012325
          ]
        ]
      },
      "id": "way/45272173"
    },
    {
      "type": "Feature",
      "properties": {
        "@id": "way/102323623",
        "cycleway": "shared_lane",
        "highway": "tertiary",
        "lanes": "2",
        "name": "Avenue Henri Barbusse",
        "oneway": "yes",
        "ref": "D 10"
      },
      "geometry": {
        "type": "LineString",
        "coordinates": [
          [
            2.486227,
            48.9018198
          ],
          [
            2.4861835,
            48.9018145
          ],
          [
            2.4861201,
            48.9018123
          ],
          [
            2.4860103,
            48.9018137
          ],
          [
            2.4858522,
            48.9018264
          ],
          [
            2.4856888,
            48.9018421
          ],
          [
            2.4853949,
            48.9018694
          ],
          [
            2.4853073,
            48.9018775
          ],
          [
            2.4842688,
            48.9019923
          ],
          [
            2.4840727,
            48.9020139
          ],
          [
            2.4839918,
            48.9020235
          ],
          [
            2.4837366,
            48.9020535
          ],
          [
            2.4834819,
            48.9020839
          ],
          [
            2.4833384,
            48.902106
          ],
          [
            2.483056,
            48.902162
          ],
          [
            2.4827703,
            48.9022232
          ],
          [
            2.4826252,
            48.902278
          ]
        ]
      },
      "id": "way/102323623"
    },
    {
      "type": "Feature",
      "properties": {
        "@id": "way/106324955",
        "highway": "tertiary",
        "name": "Avenue Henri Barbusse",
        "ref": "D 10"
      },
      "geometry": {
        "type": "LineString",
        "coordinates": [
          [
            2.489475,
            48.9012325
          ],
          [
            2.4892144,
            48.9013338
          ],
          [
            2.4890657,
            48.9013877
          ],
          [
            2.4890278,
            48.9014004
          ],
          [
            2.4889054,
            48.9014415
          ],
          [
            2.4887749,
            48.9014941
          ]
        ]
      },
      "id": "way/106324955"
    },
    {
      "type": "Feature",
      "properties": {
        "@id": "way/106324960",
        "cycleway": "shared_lane",
        "highway": "tertiary",
        "name": "Avenue Henri Barbusse",
        "oneway": "yes",
        "ref": "D 10"
      },
      "geometry": {
        "type": "LineString",
        "coordinates": [
          [
            2.4864204,
            48.9017299
          ],
          [
            2.4865821,
            48.9017246
          ],
          [
            2.4868883,
            48.901698
          ],
          [
            2.4872868,
            48.9016447
          ],
          [
            2.4875493,
            48.9016149
          ],
          [
            2.4879498,
            48.9015811
          ],
          [
            2.4883733,
            48.9015472
          ],
          [
            2.4885212,
            48.9015248
          ],
          [
            2.4886516,
            48.9015076
          ],
          [
            2.4887749,
            48.9014941
          ]
        ]
      },
      "id": "way/106324960"
    },
    {
      "type": "Feature",
      "properties": {
        "@id": "way/106324978",
        "highway": "tertiary",
        "name": "Avenue Henri Barbusse",
        "ref": "D 10"
      },
      "geometry": {
        "type": "LineString",
        "coordinates": [
          [
            2.4971843,
            48.8996715
          ],
          [
            2.497036,
            48.8996739
          ],
          [
            2.4968876,
            48.8996763
          ],
          [
            2.4967865,
            48.8996767
          ],
          [
            2.4966681,
            48.8996771
          ],
          [
            2.4966097,
            48.899678
          ],
          [
            2.4962952,
            48.899683
          ],
          [
            2.4960717,
            48.899684
          ],
          [
            2.4957115,
            48.8996864
          ],
          [
            2.4956012,
            48.8996871
          ],
          [
            2.4952792,
            48.8996911
          ]
        ]
      },
      "id": "way/106324978"
    },
    {
      "type": "Feature",
      "properties": {
        "@id": "way/106324984",
        "highway": "tertiary",
        "name": "Avenue Henri Barbusse",
        "oneway": "yes",
        "ref": "D 10"
      },
      "geometry": {
        "type": "LineString",
        "coordinates": [
          [
            2.4922516,
            48.9001674
          ],
          [
            2.4921329,
            48.9002384
          ],
          [
            2.4920131,
            48.9002895
          ],
          [
            2.4918933,
            48.9003406
          ]
        ]
      },
      "id": "way/106324984"
    },
    {
      "type": "Feature",
      "properties": {
        "@id": "way/106324991",
        "highway": "tertiary",
        "name": "Avenue Henri Barbusse",
        "oneway": "yes",
        "ref": "D 10"
      },
      "geometry": {
        "type": "LineString",
        "coordinates": [
          [
            2.489475,
            48.9012325
          ],
          [
            2.4895636,
            48.9011778
          ],
          [
            2.489886,
            48.9010425
          ],
          [
            2.4902221,
            48.9009122
          ],
          [
            2.4904402,
            48.9008277
          ],
          [
            2.490608,
            48.9007644
          ]
        ]
      },
      "id": "way/106324991"
    },
    {
      "type": "Feature",
      "properties": {
        "@id": "way/106325023",
        "highway": "tertiary",
        "name": "Avenue Henri Barbusse",
        "oneway": "yes",
        "ref": "D 10"
      },
      "geometry": {
        "type": "LineString",
        "coordinates": [
          [
            2.4908148,
            48.9006937
          ],
          [
            2.4909339,
            48.9006472
          ],
          [
            2.4911577,
            48.9005567
          ],
          [
            2.4917104,
            48.900348
          ],
          [
            2.4918607,
            48.9002913
          ],
          [
            2.4919807,
            48.900249
          ],
          [
            2.4921007,
            48.9002067
          ],
          [
            2.4922516,
            48.9001674
          ]
        ]
      },
      "id": "way/106325023"
    },
    {
      "type": "Feature",
      "properties": {
        "@id": "way/106325044",
        "cycleway": "shared_lane",
        "highway": "tertiary",
        "name": "Avenue Henri Barbusse",
        "oneway": "yes",
        "ref": "D 10"
      },
      "geometry": {
        "type": "LineString",
        "coordinates": [
          [
            2.4887749,
            48.9014941
          ],
          [
            2.4886636,
            48.9015271
          ],
          [
            2.4885359,
            48.9015666
          ],
          [
            2.4883317,
            48.9015926
          ],
          [
            2.4879761,
            48.901628
          ],
          [
            2.4873901,
            48.9016811
          ],
          [
            2.4873019,
            48.9016887
          ],
          [
            2.4867762,
            48.9017579
          ],
          [
            2.4865905,
            48.9017722
          ],
          [
            2.4864365,
            48.901783
          ]
        ]
      },
      "id": "way/106325044"
    },
    {
      "type": "Feature",
      "properties": {
        "@id": "way/106326425",
        "cycleway": "shared_lane",
        "highway": "tertiary",
        "name": "Avenue Henri Barbusse",
        "oneway": "yes",
        "ref": "D 10"
      },
      "geometry": {
        "type": "LineString",
        "coordinates": [
          [
            2.4826093,
            48.9022266
          ],
          [
            2.4827488,
            48.9021786
          ],
          [
            2.4830406,
            48.9021087
          ],
          [
            2.483299,
            48.9020573
          ],
          [
            2.4834665,
            48.9020341
          ],
          [
            2.483866,
            48.9019841
          ],
          [
            2.484013,
            48.9019693
          ],
          [
            2.4842164,
            48.9019457
          ],
          [
            2.4847651,
            48.901884
          ],
          [
            2.4852983,
            48.9018284
          ],
          [
            2.4858009,
            48.9017796
          ],
          [
            2.4860026,
            48.9017598
          ],
          [
            2.4861218,
            48.9017556
          ],
          [
            2.4861838,
            48.9017495
          ],
          [
            2.4862145,
            48.9017423
          ]
        ]
      },
      "id": "way/106326425"
    },
    {
      "type": "Feature",
      "properties": {
        "@id": "way/547400832",
        "highway": "tertiary",
        "name": "Rue Édouard Vaillant",
        "sidewalk": "both"
      },
      "geometry": {
        "type": "LineString",
        "coordinates": [
          [
            2.4798176,
            48.8962508
          ],
          [
            2.4797269,
            48.8962602
          ],
          [
            2.4796362,
            48.8962695
          ],
          [
            2.4793173,
            48.8963176
          ],
          [
            2.4790143,
            48.8963577
          ],
          [
            2.4788257,
            48.8963826
          ],
          [
            2.4782123,
            48.8964666
          ],
          [
            2.4781061,
            48.8964811
          ]
        ]
      },
      "id": "way/547400832"
    },
    {
      "type": "Feature",
      "properties": {
        "@id": "way/547427781",
        "highway": "tertiary",
        "name": "Avenue Henri Barbusse",
        "oneway": "yes",
        "ref": "D 10"
      },
      "geometry": {
        "type": "LineString",
        "coordinates": [
          [
            2.4918933,
            48.9003406
          ],
          [
            2.4917499,
            48.9003942
          ],
          [
            2.4913813,
            48.9005319
          ],
          [
            2.4912782,
            48.9005706
          ],
          [
            2.4911443,
            48.9006208
          ],
          [
            2.4910682,
            48.9006511
          ],
          [
            2.4910071,
            48.9006754
          ],
          [
            2.4908516,
            48.9007401
          ]
        ]
      },
      "id": "way/547427781"
    },
    {
      "type": "Feature",
      "properties": {
        "@id": "way/547429120",
        "highway": "unclassified",
        "name": "Rue Louis-Auguste Blanqui"
      },
      "geometry": {
        "type": "LineString",
        "coordinates": [
          [
            2.4907886,
            48.8980928
          ],
          [
            2.4911575,
            48.898027
          ],
          [
            2.4915112,
            48.897964
          ],
          [
            2.4916313,
            48.8979446
          ],
          [
            2.4916966,
            48.897934
          ],
          [
            2.4922328,
            48.8978313
          ],
          [
            2.4922839,
            48.8978217
          ],
          [
            2.4926825,
            48.897747
          ],
          [
            2.4927039,
            48.897743
          ],
          [
            2.492824,
            48.8977204
          ],
          [
            2.4935678,
            48.8975807
          ],
          [
            2.49359,
            48.897576
          ],
          [
            2.4936966,
            48.8975536
          ],
          [
            2.4939489,
            48.8975005
          ],
          [
            2.4942776,
            48.8973901
          ],
          [
            2.4944306,
            48.8973361
          ],
          [
            2.4945095,
            48.8973078
          ],
          [
            2.4946336,
            48.8972633
          ],
          [
            2.4948179,
            48.8971641
          ],
          [
            2.4949152,
            48.8971108
          ],
          [
            2.4950228,
            48.8970519
          ],
          [
            2.4952793,
            48.8969166
          ],
          [
            2.4955854,
            48.8967377
          ]
        ]
      },
      "id": "way/547429120"
    },
    {
      "type": "Feature",
      "properties": {
        "@id": "way/547429121",
        "highway": "tertiary",
        "name": "Rue Louis-Auguste Blanqui",
        "ref:FR:FANTOIR": "930570085S"
      },
      "geometry": {
        "type": "LineString",
        "coordinates": [
          [
            2.4814891,
            48.8998471
          ],
          [
            2.4815558,
            48.8998319
          ],
          [
            2.4816939,
            48.8998007
          ],
          [
            2.4822219,
            48.8996792
          ],
          [
            2.4825182,
            48.8995779
          ],
          [
            2.4826992,
            48.8995063
          ],
          [
            2.4828461,
            48.8994409
          ],
          [
            2.4829914,
            48.8993883
          ],
          [
            2.483431,
            48.899229
          ],
          [
            2.4835021,
            48.8992014
          ],
          [
            2.4837439,
            48.8991075
          ],
          [
            2.4838325,
            48.8990783
          ],
          [
            2.483947,
            48.8990405
          ],
          [
            2.484082,
            48.8990194
          ],
          [
            2.4842734,
            48.8989895
          ],
          [
            2.4847911,
            48.8989077
          ],
          [
            2.485144,
            48.8988519
          ],
          [
            2.4852377,
            48.8988373
          ],
          [
            2.4853338,
            48.898824
          ],
          [
            2.4856195,
            48.8987843
          ],
          [
            2.4860619,
            48.8987139
          ],
          [
            2.4864109,
            48.8986582
          ],
          [
            2.4867327,
            48.898611
          ],
          [
            2.4871398,
            48.8985522
          ],
          [
            2.4873504,
            48.8985192
          ],
          [
            2.4873719,
            48.8985158
          ],
          [
            2.4874975,
            48.8984961
          ],
          [
            2.4875806,
            48.8984828
          ],
          [
            2.4883422,
            48.8983618
          ],
          [
            2.4886163,
            48.8983196
          ],
          [
            2.4888296,
            48.8982872
          ],
          [
            2.4888992,
            48.8982807
          ],
          [
            2.4892556,
            48.8982473
          ],
          [
            2.4895177,
            48.8982228
          ],
          [
            2.4896976,
            48.8981997
          ],
          [
            2.4903022,
            48.8981405
          ],
          [
            2.4903984,
            48.8981311
          ],
          [
            2.4907886,
            48.8980928
          ]
        ]
      },
      "id": "way/547429121"
    },
    {
      "type": "Feature",
      "properties": {
        "@id": "way/547443813",
        "highway": "tertiary",
        "name": "Rue Édouard Vaillant",
        "oneway": "no"
      },
      "geometry": {
        "type": "LineString",
        "coordinates": [
          [
            2.4781061,
            48.8964811
          ],
          [
            2.478016,
            48.8964922
          ],
          [
            2.4772552,
            48.8965931
          ],
          [
            2.477117,
            48.8966116
          ]
        ]
      },
      "id": "way/547443813"
    },
    {
      "type": "Feature",
      "properties": {
        "@id": "way/564984105",
        "cycleway:right": "lane",
        "highway": "tertiary",
        "name": "Avenue Henri Barbusse",
        "ref": "D 10"
      },
      "geometry": {
        "type": "LineString",
        "coordinates": [
          [
            2.4952792,
            48.8996911
          ],
          [
            2.4946078,
            48.8997027
          ],
          [
            2.4942692,
            48.8997059
          ],
          [
            2.4939663,
            48.8997111
          ],
          [
            2.493808,
            48.8997191
          ],
          [
            2.4936317,
            48.8997345
          ],
          [
            2.493497,
            48.8997575
          ],
          [
            2.4932192,
            48.8998161
          ],
          [
            2.4930009,
            48.8998841
          ],
          [
            2.4926841,
            48.9000056
          ],
          [
            2.4922516,
            48.9001674
          ]
        ]
      },
      "id": "way/564984105"
    }
  ]
}