{
  "type": "FeatureCollection",
  "generator": "overpass-turbo",
  "copyright": "The data included in this document is from www.openstreetmap.org. The data is made available under ODbL.",
  "timestamp": "2026-05-19T13:25:13Z",
  "features": [
    {
      "type": "Feature",
      "properties": {
        "@id": "way/35539361",
        "addr:city": "Bondy",
        "amenity": "school",
        "education": "school",
        "name": "Collège - Lycée Jean Renoir",
        "operator:type": "public",
        "school:FR": "secondaire",
        "wheelchair": "yes"
      },
      "geometry": {
        "type": "Polygon",
        "coordinates": [
          [
            [
              2.4732652,
              48.9041366
            ],
            [
              2.4732497,
              48.9038262
            ],
            [
              2.473241,
              48.9036492
            ],
            [
              2.4732388,
              48.9035602
            ],
            [
              2.4732541,
              48.9034849
            ],
            [
              2.4732983,
              48.9032698
            ],
            [
              2.4733968,
              48.9027231
            ],
            [
              2.4734588,
              48.9025804
            ],
            [
              2.4737365,
              48.9026353
            ],
            [
              2.4743794,
              48.9025802
            ],
            [
              2.4745149,
              48.9027366
            ],
            [
              2.4747144,
              48.9026641
            ],
            [
              2.4752257,
              48.9031838
            ],
            [
              2.4753033,
              48.9034003
            ],
            [
              2.4753824,
              48.9036076
            ],
            [
              2.4754473,
              48.9037272
            ],
            [
              2.4732652,
              48.9041366
            ]
          ]
        ]
      },
      "id": "way/35539361"
    },
    {
      "type": "Feature",
      "properties": {
        "@id": "way/45260850",
        "addr:city": "Bondy",
        "addr:housenumber": "66 bis",
        "amenity": "school",
        "contact:email": "ce.0931612x@ac-creteil.fr",
        "contact:website": "https://zay-bondy.webcollege.seinesaintdenis.fr/",
        "name": "Collège Jean Zay",
        "operator:type": "public",
        "phone": "+33186783000",
        "polling_station": "yes",
        "polling_station:ref": "4",
        "ref:FR:SIRET": "19931612600010",
        "ref:UAI": "0931612X",
        "school:FR": "collège",
        "source": "data.gouv.fr:Éducation Nationale - 05/2016",
        "start_date": "1976-02-24"
      },
      "geometry": {
        "type": "Polygon",
        "coordinates": [
          [
            [
              2.4806102,
              48.9104538
            ],
            [
              2.4816639,
              48.9103485
            ],
            [
              2.4819039,
              48.9107727
            ],
            [
              2.4818701,
              48.9107842
            ],
            [
              2.4820265,
              48.911025
            ],
            [
              2.4822037,
              48.9112979
            ],
            [
              2.4816532,
              48.9114617
            ],
            [
              2.4816831,
              48.9115039
            ],
            [
              2.48144,
              48.9115736
            ],
            [
              2.4814189,
              48.9115423
            ],
            [
              2.4812933,
              48.9115776
            ],
            [
              2.4813108,
              48.911604
            ],
            [
              2.4812362,
              48.9116245
            ],
            [
              2.4812101,
              48.9115825
            ],
            [
              2.4812362,
              48.911575
            ],
            [
              2.4812189,
              48.9115477
            ],
            [
              2.4812049,
              48.9115259
            ],
            [
              2.4811752,
              48.911533
            ],
            [
              2.4810082,
              48.911281
            ],
            [
              2.4810494,
              48.9112055
            ],
            [
              2.4810315,
              48.9111782
            ],
            [
              2.4809793,
              48.9110986
            ],
            [
              2.4809004,
              48.9111193
            ],
            [
              2.4807357,
              48.9108715
            ],
            [
              2.480527,
              48.910555
            ],
            [
              2.4805479,
              48.9105473
            ],
            [
              2.4805726,
              48.9105416
            ],
            [
              2.4806021,
              48.9105347
            ],
            [
              2.4805903,
              48.9105176
            ],
            [
              2.480568,
              48.9104851
            ],
            [
              2.480613,
              48.9104815
            ],
            [
              2.4806102,
              48.9104538
            ]
          ]
        ]
      },
      "id": "way/45260850"
    },
    {
      "type": "Feature",
      "properties": {
        "@id": "way/52755083",
        "amenity": "school",
        "name": "Groupe scolaire Pasteur",
        "operator": "Ville de Bondy",
        "operator:type": "public",
        "polling_station": "yes",
        "polling_station:ref": "22",
        "wheelchair": "yes"
      },
      "geometry": {
        "type": "Polygon",
        "coordinates": [
          [
            [
              2.4877517,
              48.9074335
            ],
            [
              2.488304,
              48.9072892
            ],
            [
              2.4883447,
              48.9071778
            ],
            [
              2.4887611,
              48.9072384
            ],
            [
              2.4889329,
              48.9075699
            ],
            [
              2.4887817,
              48.9079202
            ],
            [
              2.4889002,
              48.9080657
            ],
            [
              2.4886781,
              48.9083917
            ],
            [
              2.4885934,
              48.9084826
            ],
            [
              2.4884995,
              48.9086701
            ],
            [
              2.4869701,
              48.9083553
            ],
            [
              2.4870262,
              48.9082469
            ],
            [
              2.4877517,
              48.9074335
            ]
          ]
        ]
      },
      "id": "way/52755083"
    },
    {
      "type": "Feature",
      "properties": {
        "@id": "way/52755281",
        "addr:city": "Bondy",
        "addr:housenumber": "1",
        "amenity": "school",
        "name": "Lycée professionnel Madeleine Vionnet",
        "operator:type": "public",
        "ref:UAI": "0930129K",
        "school:FR": "lycée",
        "source": "data.gouv.fr:Ministère de l'Éducation nationale, de la Jeunesse et de la Vie associative - 05/2012"
      },
      "geometry": {
        "type": "Polygon",
        "coordinates": [
          [
            [
              2.4739465,
              48.9042288
            ],
            [
              2.4745833,
              48.9041045
            ],
            [
              2.4746675,
              48.9040889
            ],
            [
              2.4747427,
              48.9040748
            ],
            [
              2.4747425,
              48.9040988
            ],
            [
              2.4747428,
              48.9041317
            ],
            [
              2.4747456,
              48.9041813
            ],
            [
              2.474751,
              48.9042671
            ],
            [
              2.4747531,
              48.9042995
            ],
            [
              2.4747616,
              48.9044396
            ],
            [
              2.4753464,
              48.9044343
            ],
            [
              2.4753514,
              48.9044812
            ],
            [
              2.475335,
              48.9047964
            ],
            [
              2.474803,
              48.9046787
            ],
            [
              2.4736663,
              48.9043815
            ],
            [
              2.4737335,
              48.9042698
            ],
            [
              2.4739465,
              48.9042288
            ]
          ]
        ]
      },
      "id": "way/52755281"
    },
    {
      "type": "Feature",
      "properties": {
        "@id": "way/84166240",
        "amenity": "school",
        "building": "yes",
        "name": "École élémentaire Pierre Curie",
        "school:FR": "primaire",
        "source": "cadastre-dgi-fr source : Direction Générale des Impôts - Cadastre. Mise à jour : 2010"
      },
      "geometry": {
        "type": "Polygon",
        "coordinates": [
          [
            [
              2.4883734,
              48.8912151
            ],
            [
              2.4884198,
              48.8912934
            ],
            [
              2.4872074,
              48.8915947
            ],
            [
              2.4871627,
              48.8915159
            ],
            [
              2.4872753,
              48.8914875
            ],
            [
              2.4872062,
              48.8913688
            ],
            [
              2.4873084,
              48.8913425
            ],
            [
              2.4873763,
              48.8914621
            ],
            [
              2.488228,
              48.8912519
            ],
            [
              2.4883734,
              48.8912151
            ]
          ]
        ]
      },
      "id": "way/84166240"
    },
    {
      "type": "Feature",
      "properties": {
        "@id": "way/84174489",
        "amenity": "school",
        "building": "public",
        "name": "École maternelle Pierre Curie",
        "polling_station": "yes",
        "polling_station:ref": "13",
        "school:FR": "maternelle",
        "source": "cadastre-dgi-fr source : Direction Générale des Impôts - Cadastre. Mise à jour : 2010"
      },
      "geometry": {
        "type": "Polygon",
        "coordinates": [
          [
            [
              2.4879614,
              48.8921425
            ],
            [
              2.4877381,
              48.8921992
            ],
            [
              2.487728,
              48.8921816
            ],
            [
              2.4876214,
              48.8922083
            ],
            [
              2.48756,
              48.8921065
            ],
            [
              2.4875792,
              48.8921013
            ],
            [
              2.4875843,
              48.8921102
            ],
            [
              2.4878114,
              48.8920534
            ],
            [
              2.488105,
              48.8919795
            ],
            [
              2.4880181,
              48.8918365
            ],
            [
              2.488007,
              48.8918168
            ],
            [
              2.4879724,
              48.8917579
            ],
            [
              2.4885045,
              48.8916251
            ],
            [
              2.48855,
              48.8917032
            ],
            [
              2.488049,
              48.8918286
            ],
            [
              2.4880504,
              48.8918322
            ],
            [
              2.4881321,
              48.8919572
            ],
            [
              2.488203,
              48.8920816
            ],
            [
              2.4879614,
              48.8921425
            ]
          ]
        ]
      },
      "id": "way/84174489"
    },
    {
      "type": "Feature",
      "properties": {
        "@id": "way/84180882",
        "amenity": "school",
        "building": "public",
        "name": "centre de loisirs Jacques Prévert",
        "source": "cadastre-dgi-fr source : Direction Générale des Impôts - Cadastre. Mise à jour : 2010"
      },
      "geometry": {
        "type": "Polygon",
        "coordinates": [
          [
            [
              2.4737898,
              48.8958694
            ],
            [
              2.4738308,
              48.8959345
            ],
            [
              2.4737975,
              48.895943
            ],
            [
              2.4738328,
              48.896006
            ],
            [
              2.4736412,
              48.8960549
            ],
            [
              2.4735505,
              48.8960783
            ],
            [
              2.4733723,
              48.8961237
            ],
            [
              2.4733324,
              48.8960575
            ],
            [
              2.4736015,
              48.8959887
            ],
            [
              2.4735657,
              48.895927
            ],
            [
              2.4737898,
              48.8958694
            ]
          ]
        ]
      },
      "id": "way/84180882"
    },
    {
      "type": "Feature",
      "properties": {
        "@id": "way/84180890",
        "amenity": "school",
        "building": "public",
        "name": "Centre de loisirs les P'tits Loups",
        "operator": "ville de Bondy",
        "source": "cadastre-dgi-fr source : Direction Générale des Impôts - Cadastre. Mise à jour : 2010"
      },
      "geometry": {
        "type": "Polygon",
        "coordinates": [
          [
            [
              2.4911823,
              48.8955353
            ],
            [
              2.4906654,
              48.8956375
            ],
            [
              2.4906563,
              48.8956203
            ],
            [
              2.490595,
              48.8956332
            ],
            [
              2.4906132,
              48.8956741
            ],
            [
              2.4907398,
              48.8956489
            ],
            [
              2.490798,
              48.8957796
            ],
            [
              2.4904679,
              48.8958459
            ],
            [
              2.4904078,
              48.8957154
            ],
            [
              2.4904581,
              48.895705
            ],
            [
              2.4904487,
              48.8956807
            ],
            [
              2.4904317,
              48.8956836
            ],
            [
              2.4903827,
              48.8955762
            ],
            [
              2.4911328,
              48.8954271
            ],
            [
              2.4911823,
              48.8955353
            ]
          ]
        ]
      },
      "id": "way/84180890"
    },
    {
      "type": "Feature",
      "properties": {
        "@id": "way/84181743",
        "amenity": "school",
        "building": "public",
        "name": "Centre de loisirs Appolinaire",
        "polling_station": "yes",
        "polling_station:ref": "28",
        "source": "cadastre-dgi-fr source : Direction Générale des Impôts - Cadastre. Mise à jour : 2010"
      },
      "geometry": {
        "type": "Polygon",
        "coordinates": [
          [
            [
              2.483284,
              48.9017785
            ],
            [
              2.4832383,
              48.9015443
            ],
            [
              2.4833495,
              48.9015278
            ],
            [
              2.4833522,
              48.9016159
            ],
            [
              2.4834366,
              48.9016002
            ],
            [
              2.4834674,
              48.9017226
            ],
            [
              2.4835068,
              48.9017966
            ],
            [
              2.4834705,
              48.9018049
            ],
            [
              2.4835162,
              48.901928
            ],
            [
              2.4833946,
              48.9019616
            ],
            [
              2.4833271,
              48.9018498
            ],
            [
              2.483284,
              48.9017785
            ]
          ]
        ]
      },
      "id": "way/84181743"
    },
    {
      "type": "Feature",
      "properties": {
        "@id": "way/84184020",
        "amenity": "school",
        "building": "public",
        "name": "Groupe scolaire Terre Saint Blaise",
        "operator": "ville de Bondy",
        "source": "cadastre-dgi-fr source : Direction Générale des Impôts - Cadastre. Mise à jour : 2010"
      },
      "geometry": {
        "type": "Polygon",
        "coordinates": [
          [
            [
              2.4811723,
              48.9166268
            ],
            [
              2.4812518,
              48.9169207
            ],
            [
              2.4815708,
              48.9168844
            ],
            [
              2.4815508,
              48.9168014
            ],
            [
              2.4815774,
              48.9167983
            ],
            [
              2.482242,
              48.9167216
            ],
            [
              2.4828549,
              48.9166508
            ],
            [
              2.4828506,
              48.9166301
            ],
            [
              2.4828707,
              48.9166282
            ],
            [
              2.4828748,
              48.9166487
            ],
            [
              2.4829179,
              48.916644
            ],
            [
              2.482938,
              48.9167263
            ],
            [
              2.482899,
              48.9167306
            ],
            [
              2.482927,
              48.9168285
            ],
            [
              2.482865,
              48.9168359
            ],
            [
              2.4828,
              48.9168433
            ],
            [
              2.4827737,
              48.9167454
            ],
            [
              2.4822596,
              48.9168045
            ],
            [
              2.4817244,
              48.916866
            ],
            [
              2.4817421,
              48.916949
            ],
            [
              2.4816342,
              48.9169614
            ],
            [
              2.4816289,
              48.9169536
            ],
            [
              2.4815891,
              48.9169587
            ],
            [
              2.4813921,
              48.916984
            ],
            [
              2.4813889,
              48.9169874
            ],
            [
              2.4812719,
              48.9170022
            ],
            [
              2.4812815,
              48.9170338
            ],
            [
              2.4811526,
              48.9170479
            ],
            [
              2.4811447,
              48.917016
            ],
            [
              2.4811194,
              48.917019
            ],
            [
              2.4810987,
              48.9169372
            ],
            [
              2.4811252,
              48.9169351
            ],
            [
              2.4810507,
              48.9166416
            ],
            [
              2.4811723,
              48.9166268
            ]
          ]
        ]
      },
      "id": "way/84184020"
    },
    {
      "type": "Feature",
      "properties": {
        "@id": "way/167227195",
        "addr:city": "Bondy",
        "addr:housenumber": "4-6",
        "amenity": "school",
        "name": "Collège Henri Sellier",
        "operator:type": "public",
        "ref:UAI": "0931788N",
        "school:FR": "collège",
        "source": "data.gouv.fr:Ministère de l'Éducation nationale, de la Jeunesse et de la Vie associative - 05/2012"
      },
      "geometry": {
        "type": "Polygon",
        "coordinates": [
          [
            [
              2.4935591,
              48.9023054
            ],
            [
              2.4934732,
              48.9022763
            ],
            [
              2.4932772,
              48.9020201
            ],
            [
              2.4934137,
              48.9019731
            ],
            [
              2.4933489,
              48.9018947
            ],
            [
              2.4932557,
              48.9019268
            ],
            [
              2.4929239,
              48.9014976
            ],
            [
              2.492869,
              48.9015185
            ],
            [
              2.4927089,
              48.9013077
            ],
            [
              2.4923947,
              48.9008938
            ],
            [
              2.4925423,
              48.9008328
            ],
            [
              2.492528,
              48.9008141
            ],
            [
              2.4925145,
              48.9007963
            ],
            [
              2.4931044,
              48.9005891
            ],
            [
              2.4943598,
              48.902135
            ],
            [
              2.4935591,
              48.9023054
            ]
          ]
        ]
      },
      "id": "way/167227195"
    },
    {
      "type": "Feature",
      "properties": {
        "@id": "way/441185211",
        "amenity": "school",
        "name": "École maternelle Jean Zay",
        "operator": "Ville de Bondy",
        "operator:type": "public",
        "polling_station": "yes",
        "polling_station_ref": "04",
        "ref:UAI": "0930414V",
        "school:FR": "maternelle",
        "source": "data.gouv.fr:Éducation Nationale - 05/2016"
      },
      "geometry": {
        "type": "Polygon",
        "coordinates": [
          [
            [
              2.48144,
              48.9115736
            ],
            [
              2.4816831,
              48.9115039
            ],
            [
              2.4816532,
              48.9114617
            ],
            [
              2.4822037,
              48.9112979
            ],
            [
              2.4823469,
              48.9113312
            ],
            [
              2.4823944,
              48.9114045
            ],
            [
              2.4824772,
              48.9114391
            ],
            [
              2.4825951,
              48.9116192
            ],
            [
              2.4826647,
              48.911731
            ],
            [
              2.4815382,
              48.9120589
            ],
            [
              2.4812362,
              48.9116245
            ],
            [
              2.4813108,
              48.911604
            ],
            [
              2.4812933,
              48.9115776
            ],
            [
              2.4814189,
              48.9115423
            ],
            [
              2.48144,
              48.9115736
            ]
          ]
        ]
      },
      "id": "way/441185211"
    },
    {
      "type": "Feature",
      "properties": {
        "@id": "way/466681867",
        "amenity": "school",
        "name": "Groupe Scolaire Mainguy Guehenno",
        "operator:type": "public",
        "ref:UAI": "0930237C",
        "school:FR": "primaire",
        "source": "data.gouv.fr:Éducation Nationale - 05/2016"
      },
      "geometry": {
        "type": "Polygon",
        "coordinates": [
          [
            [
              2.4762062,
              48.9016147
            ],
            [
              2.4769118,
              48.9014763
            ],
            [
              2.4771544,
              48.9020186
            ],
            [
              2.4770621,
              48.9020399
            ],
            [
              2.4770608,
              48.9020402
            ],
            [
              2.4770445,
              48.9020441
            ],
            [
              2.4768938,
              48.9020776
            ],
            [
              2.4767671,
              48.902107
            ],
            [
              2.4766984,
              48.9021232
            ],
            [
              2.4766399,
              48.9021362
            ],
            [
              2.476584,
              48.9021489
            ],
            [
              2.4765122,
              48.9021657
            ],
            [
              2.4764139,
              48.9021883
            ],
            [
              2.4763451,
              48.902204
            ],
            [
              2.476056,
              48.9022688
            ],
            [
              2.4759178,
              48.9020405
            ],
            [
              2.4760025,
              48.9020256
            ],
            [
              2.476073,
              48.9020112
            ],
            [
              2.4761514,
              48.9019951
            ],
            [
              2.4762401,
              48.9019773
            ],
            [
              2.476277,
              48.9019704
            ],
            [
              2.4763093,
              48.9019638
            ],
            [
              2.4763577,
              48.9019541
            ],
            [
              2.4762062,
              48.9016147
            ]
          ]
        ]
      },
      "id": "way/466681867"
    },
    {
      "type": "Feature",
      "properties": {
        "@id": "way/466683454",
        "amenity": "school",
        "name": "École maternelle Mainguy",
        "operator:type": "public",
        "ref:UAI": "0930501P",
        "school:FR": "maternelle",
        "source": "data.gouv.fr:Éducation Nationale - 05/2016"
      },
      "geometry": {
        "type": "Polygon",
        "coordinates": [
          [
            [
              2.4760037,
              48.9015624
            ],
            [
              2.4758293,
              48.9011763
            ],
            [
              2.4765557,
              48.9010707
            ],
            [
              2.4767118,
              48.9014214
            ],
            [
              2.4760037,
              48.9015624
            ]
          ]
        ]
      },
      "id": "way/466683454"
    },
    {
      "type": "Feature",
      "properties": {
        "@id": "way/604004174",
        "addr:city": "Bondy",
        "addr:postcode": "93140",
        "amenity": "school",
        "denomination": "catholic",
        "name": "École, Collège, Lycée et Établissement Supérieur Assomption de Bondy",
        "religion": "christian"
      },
      "geometry": {
        "type": "Polygon",
        "coordinates": [
          [
            [
              2.4904445,
              48.9048165
            ],
            [
              2.489689,
              48.9036292
            ],
            [
              2.4891165,
              48.9027295
            ],
            [
              2.48903,
              48.9025936
            ],
            [
              2.4890061,
              48.902556
            ],
            [
              2.4892504,
              48.9024775
            ],
            [
              2.4897143,
              48.9023286
            ],
            [
              2.491023,
              48.9043662
            ],
            [
              2.4904445,
              48.9048165
            ]
          ]
        ]
      },
      "id": "way/604004174"
    },
    {
      "type": "Feature",
      "properties": {
        "@id": "way/724311855",
        "addr:city": "Bondy",
        "addr:housenumber": "128",
        "amenity": "school",
        "name": "Collège Pierre Curie",
        "operator:type": "public",
        "ref:UAI": "0931005M",
        "school:FR": "collège"
      },
      "geometry": {
        "type": "Polygon",
        "coordinates": [
          [
            [
              2.4867526,
              48.8924466
            ],
            [
              2.4859997,
              48.891036
            ],
            [
              2.4858854,
              48.8908162
            ],
            [
              2.4867213,
              48.8906865
            ],
            [
              2.4867586,
              48.8907714
            ],
            [
              2.4868901,
              48.8910495
            ],
            [
              2.4869113,
              48.8910988
            ],
            [
              2.4868558,
              48.891114
            ],
            [
              2.486965,
              48.8913105
            ],
            [
              2.4869483,
              48.8913148
            ],
            [
              2.4874406,
              48.8921678
            ],
            [
              2.4872278,
              48.8922207
            ],
            [
              2.487251,
              48.8922612
            ],
            [
              2.4872741,
              48.8923016
            ],
            [
              2.4869049,
              48.8923929
            ],
            [
              2.4869141,
              48.8924084
            ],
            [
              2.4867526,
              48.8924466
            ]
          ]
        ]
      },
      "id": "way/724311855"
    },
    {
      "type": "Feature",
      "properties": {
        "@id": "way/724331535",
        "addr:city": "Bondy",
        "addr:housenumber": "77",
        "amenity": "school",
        "name": "Collège Pierre Brossolette",
        "operator:type": "public",
        "ref:UAI": "0931860S",
        "school:FR": "collège"
      },
      "geometry": {
        "type": "Polygon",
        "coordinates": [
          [
            [
              2.4878545,
              48.9025967
            ],
            [
              2.4879538,
              48.9026843
            ],
            [
              2.4884385,
              48.9024486
            ],
            [
              2.4886147,
              48.9027117
            ],
            [
              2.48903,
              48.9025936
            ],
            [
              2.4891165,
              48.9027295
            ],
            [
              2.489689,
              48.9036292
            ],
            [
              2.4891573,
              48.903778
            ],
            [
              2.4891175,
              48.9037997
            ],
            [
              2.4890984,
              48.9038101
            ],
            [
              2.489047,
              48.9038381
            ],
            [
              2.4888558,
              48.9039423
            ],
            [
              2.4885492,
              48.9041095
            ],
            [
              2.487836,
              48.9038556
            ],
            [
              2.4876775,
              48.9026139
            ],
            [
              2.4877524,
              48.9026066
            ],
            [
              2.4878545,
              48.9025967
            ]
          ]
        ]
      },
      "id": "way/724331535"
    },
    {
      "type": "Feature",
      "properties": {
        "@id": "way/884289396",
        "amenity": "school",
        "name": "groupe scolaire Olympe de Gouges",
        "polling_station": "yes",
        "polling_station:ref": "24",
        "school:FR": "élémentaire",
        "start_date": "2008"
      },
      "geometry": {
        "type": "Polygon",
        "coordinates": [
          [
            [
              2.4833366,
              48.9125421
            ],
            [
              2.4839873,
              48.912349
            ],
            [
              2.4838576,
              48.9121563
            ],
            [
              2.4840243,
              48.9121042
            ],
            [
              2.484047,
              48.9121366
            ],
            [
              2.4843753,
              48.9120373
            ],
            [
              2.484479,
              48.9119593
            ],
            [
              2.4845037,
              48.9119115
            ],
            [
              2.4845219,
              48.9118514
            ],
            [
              2.4845277,
              48.9117943
            ],
            [
              2.4845225,
              48.9117644
            ],
            [
              2.4845063,
              48.911718
            ],
            [
              2.4845971,
              48.9116822
            ],
            [
              2.4850337,
              48.9122053
            ],
            [
              2.4850447,
              48.9122241
            ],
            [
              2.4850408,
              48.9122437
            ],
            [
              2.4850311,
              48.9122543
            ],
            [
              2.4846127,
              48.9123797
            ],
            [
              2.4845964,
              48.9123562
            ],
            [
              2.4845885,
              48.9123424
            ],
            [
              2.4844414,
              48.9123852
            ],
            [
              2.4842588,
              48.9124384
            ],
            [
              2.4842851,
              48.9124765
            ],
            [
              2.4835592,
              48.9126909
            ],
            [
              2.4834145,
              48.9126623
            ],
            [
              2.4833366,
              48.9125421
            ]
          ]
        ]
      },
      "id": "way/884289396"
    },
    {
      "type": "Feature",
      "properties": {
        "@id": "way/910748662",
        "addr:housenumber": "2",
        "amenity": "school",
        "contact:email": "ce.0930576W@ac-creteil.fr",
        "contact:phone": "+33 148494399",
        "name": "École maternelle Terre Saint-Blaise",
        "operator:type": "public",
        "polling_station": "yes",
        "polling_station:ref": "21",
        "ref:FR:SIRET": "21930010000076",
        "ref:UAI": "0930576W",
        "school:FR": "maternelle",
        "source": "data.gouv.fr:Éducation Nationale - 05/2016;https://www.dsden93.ac-creteil.fr/spip/spip.php?page=infoecole&rne=0930576W",
        "start_date": "1965-12-01"
      },
      "geometry": {
        "type": "Polygon",
        "coordinates": [
          [
            [
              2.4815891,
              48.9169587
            ],
            [
              2.4813921,
              48.916984
            ],
            [
              2.4813889,
              48.9169874
            ],
            [
              2.4812719,
              48.9170022
            ],
            [
              2.4812815,
              48.9170338
            ],
            [
              2.4812875,
              48.9170548
            ],
            [
              2.4810901,
              48.9170783
            ],
            [
              2.4810037,
              48.9170247
            ],
            [
              2.4809241,
              48.9167423
            ],
            [
              2.481005,
              48.916651
            ],
            [
              2.4810507,
              48.9166416
            ],
            [
              2.4811723,
              48.9166268
            ],
            [
              2.4812305,
              48.9166151
            ],
            [
              2.4813148,
              48.9165844
            ],
            [
              2.4813763,
              48.9165532
            ],
            [
              2.4814491,
              48.9165238
            ],
            [
              2.4814792,
              48.9165152
            ],
            [
              2.4815092,
              48.9165116
            ],
            [
              2.4815774,
              48.9167983
            ],
            [
              2.4815508,
              48.9168014
            ],
            [
              2.4815708,
              48.9168844
            ],
            [
              2.4815891,
              48.9169587
            ]
          ]
        ]
      },
      "id": "way/910748662"
    },
    {
      "type": "Feature",
      "properties": {
        "@id": "way/910753092",
        "addr:housenumber": "4",
        "amenity": "school",
        "contact:email": "ce.0930574U@ac-creteil.fr",
        "contact:phone": "+33 148492801",
        "name": "École primaire André Boulloche",
        "operator:type": "public",
        "ref:FR:SIRET": "21930010000050",
        "ref:UAI": "0930574U",
        "school:FR": "élémentaire",
        "source": "https://www.dsden93.ac-creteil.fr/spip/spip.php?page=infoecole&rne=0930574U;data.gouv.fr:Éducation Nationale - 05/2016",
        "start_date": "1965-12-01"
      },
      "geometry": {
        "type": "Polygon",
        "coordinates": [
          [
            [
              2.4815891,
              48.9169587
            ],
            [
              2.4815708,
              48.9168844
            ],
            [
              2.4815508,
              48.9168014
            ],
            [
              2.4815774,
              48.9167983
            ],
            [
              2.4815092,
              48.9165116
            ],
            [
              2.4821704,
              48.9164326
            ],
            [
              2.482242,
              48.9167216
            ],
            [
              2.4822596,
              48.9168045
            ],
            [
              2.4817244,
              48.916866
            ],
            [
              2.4817421,
              48.916949
            ],
            [
              2.4816342,
              48.9169614
            ],
            [
              2.4816289,
              48.9169536
            ],
            [
              2.4815891,
              48.9169587
            ]
          ]
        ]
      },
      "id": "way/910753092"
    },
    {
      "type": "Feature",
      "properties": {
        "@id": "way/910768334",
        "addr:housenumber": "8",
        "amenity": "school",
        "contact:email": "ce.0930213B@ac-creteil.fr",
        "contact:phone": "+33 148492791",
        "name": "École primaire Aimé Césaire",
        "operator:type": "public",
        "ref:FR:SIRET": "21930010000068",
        "ref:UAI": "0930213B",
        "school:FR": "élémentaire",
        "source": "https://www.dsden93.ac-creteil.fr/spip/spip.php?page=infoecole&rne=0930213B",
        "start_date": "1966-09-30"
      },
      "geometry": {
        "type": "Polygon",
        "coordinates": [
          [
            [
              2.4822596,
              48.9168045
            ],
            [
              2.4821704,
              48.9164326
            ],
            [
              2.4828735,
              48.9163494
            ],
            [
              2.4829896,
              48.9168
            ],
            [
              2.4829177,
              48.9168628
            ],
            [
              2.4828747,
              48.9168678
            ],
            [
              2.482865,
              48.9168359
            ],
            [
              2.4828,
              48.9168433
            ],
            [
              2.4827737,
              48.9167454
            ],
            [
              2.4822596,
              48.9168045
            ]
          ]
        ]
      },
      "id": "way/910768334"
    },
    {
      "type": "Feature",
      "properties": {
        "@id": "way/913040169",
        "addr:housenumber": "2",
        "amenity": "school",
        "name": "École primaire Assia Djebar (ex école primaire Jules Ferry)",
        "operator:type": "public",
        "ref:UAI": "0930453M",
        "religion": "none",
        "school:FR": "primaire",
        "source": "https://www.dsden93.ac-creteil.fr/spip/spip.php?page=infoecole&rne=0930453M;https://www.ville-bondy.fr/mon-quotidien/enfance-et-vie-scolaire/ecoles-primaires/annuaire-des-ecoles-elementaires/"
      },
      "geometry": {
        "type": "Polygon",
        "coordinates": [
          [
            [
              2.4895252,
              48.8960196
            ],
            [
              2.4894899,
              48.896009
            ],
            [
              2.4894601,
              48.8959508
            ],
            [
              2.4893443,
              48.895723
            ],
            [
              2.4892865,
              48.89561
            ],
            [
              2.4890239,
              48.8950573
            ],
            [
              2.4890489,
              48.8950365
            ],
            [
              2.4894362,
              48.8949809
            ],
            [
              2.4894416,
              48.8949975
            ],
            [
              2.4894997,
              48.8951142
            ],
            [
              2.489854,
              48.895073
            ],
            [
              2.4900803,
              48.8954281
            ],
            [
              2.490339,
              48.8958475
            ],
            [
              2.489986,
              48.8959214
            ],
            [
              2.4895252,
              48.8960196
            ]
          ]
        ]
      },
      "id": "way/913040169"
    },
    {
      "type": "Feature",
      "properties": {
        "@id": "way/913042052",
        "addr:housenumber": "136",
        "amenity": "school",
        "name": "École élémentaire Jean Rostand",
        "operator:type": "public",
        "ref:UAI": "0930149G",
        "religion": "none",
        "school:FR": "élémentaire",
        "source": "https://www.dsden93.ac-creteil.fr/spip/spip.php?page=infoecole&rne=0930149G"
      },
      "geometry": {
        "type": "Polygon",
        "coordinates": [
          [
            [
              2.4894589,
              48.8973366
            ],
            [
              2.4892566,
              48.8967573
            ],
            [
              2.4898933,
              48.8966706
            ],
            [
              2.4900767,
              48.8972327
            ],
            [
              2.4894589,
              48.8973366
            ]
          ]
        ]
      },
      "id": "way/913042052"
    },
    {
      "type": "Feature",
      "properties": {
        "@id": "way/913042053",
        "addr:housenumber": "136",
        "amenity": "school",
        "name": "École élémentaire Jules Ferry",
        "operator:type": "public",
        "polling_station": "yes",
        "polling_station:ref": "10",
        "ref:UAI": "0930271P",
        "religion": "none",
        "school:FR": "élémentaire",
        "source": "https://www.dsden93.ac-creteil.fr/spip/spip.php?page=infoecole&rne=0930271P"
      },
      "geometry": {
        "type": "Polygon",
        "coordinates": [
          [
            [
              2.4899001,
              48.8979575
            ],
            [
              2.4896596,
              48.897303
            ],
            [
              2.4900767,
              48.8972327
            ],
            [
              2.4902275,
              48.897715
            ],
            [
              2.4902824,
              48.8979205
            ],
            [
              2.4902191,
              48.8979274
            ],
            [
              2.4899001,
              48.8979575
            ]
          ]
        ]
      },
      "id": "way/913042053"
    },
    {
      "type": "Feature",
      "properties": {
        "@id": "way/957186996",
        "amenity": "school",
        "building": "public",
        "name": "École maternelle Pasteur",
        "operator": "ville de Bondy",
        "polling_station": "yes",
        "polling_station:ref": "7",
        "ref:UAI": "0930456R",
        "school:FR": "maternelle"
      },
      "geometry": {
        "type": "Polygon",
        "coordinates": [
          [
            [
              2.487848,
              48.9078014
            ],
            [
              2.4877116,
              48.9077414
            ],
            [
              2.4878045,
              48.9076378
            ],
            [
              2.4876446,
              48.9075758
            ],
            [
              2.4877173,
              48.9074943
            ],
            [
              2.4878776,
              48.9075555
            ],
            [
              2.4879686,
              48.9074541
            ],
            [
              2.4881073,
              48.9075076
            ],
            [
              2.4880129,
              48.9076148
            ],
            [
              2.488742,
              48.9078965
            ],
            [
              2.4886654,
              48.9079746
            ],
            [
              2.4879493,
              48.907686
            ],
            [
              2.487848,
              48.9078014
            ]
          ]
        ]
      },
      "id": "way/957186996"
    },
    {
      "type": "Feature",
      "properties": {
        "@id": "way/957186997",
        "amenity": "school",
        "building": "public",
        "name": "Ecole élémentaire Pasteur",
        "operator": "ville de Bondy",
        "ref:UAI": "0930546N",
        "school:FR": "élémentaire"
      },
      "geometry": {
        "type": "Polygon",
        "coordinates": [
          [
            [
              2.4872023,
              48.9083158
            ],
            [
              2.4876961,
              48.9077488
            ],
            [
              2.4886517,
              48.9081155
            ],
            [
              2.4885726,
              48.9081891
            ],
            [
              2.4877883,
              48.9078845
            ],
            [
              2.4874496,
              48.908252
            ],
            [
              2.4877554,
              48.908374
            ],
            [
              2.4883399,
              48.9084977
            ],
            [
              2.4882969,
              48.9085845
            ],
            [
              2.4881894,
              48.9085633
            ],
            [
              2.4876983,
              48.9084475
            ],
            [
              2.487431,
              48.9083446
            ],
            [
              2.4873833,
              48.9083253
            ],
            [
              2.4873444,
              48.9083663
            ],
            [
              2.4873393,
              48.9083709
            ],
            [
              2.4872023,
              48.9083158
            ]
          ]
        ]
      },
      "id": "way/957186997"
    },
    {
      "type": "Feature",
      "properties": {
        "@id": "way/1033780156",
        "amenity": "school",
        "area": "yes",
        "name": "Groupe scolaire Pierre Curie"
      },
      "geometry": {
        "type": "Polygon",
        "coordinates": [
          [
            [
              2.4875701,
              48.8922448
            ],
            [
              2.4870203,
              48.8913014
            ],
            [
              2.4883855,
              48.8909857
            ],
            [
              2.4888415,
              48.8919098
            ],
            [
              2.4884043,
              48.8920279
            ],
            [
              2.4884097,
              48.8920808
            ],
            [
              2.4881978,
              48.892139
            ],
            [
              2.4877284,
              48.8922325
            ],
            [
              2.4875701,
              48.8922448
            ]
          ]
        ]
      },
      "id": "way/1033780156"
    },
    {
      "type": "Feature",
      "properties": {
        "@id": "way/1033802245",
        "amenity": "school",
        "area": "yes",
        "name": "École maternelle Henri Sellier"
      },
      "geometry": {
        "type": "Polygon",
        "coordinates": [
          [
            [
              2.4923262,
              48.9008025
            ],
            [
              2.4919927,
              48.9003724
            ],
            [
              2.4924138,
              48.9002067
            ],
            [
              2.4925533,
              48.9003407
            ],
            [
              2.4928325,
              48.9002388
            ],
            [
              2.4931044,
              48.9005891
            ],
            [
              2.4925145,
              48.9007963
            ],
            [
              2.4924415,
              48.9008114
            ],
            [
              2.4923262,
              48.9008025
            ]
          ]
        ]
      },
      "id": "way/1033802245"
    },
    {
      "type": "Feature",
      "properties": {
        "@id": "way/1034103430",
        "amenity": "school",
        "area": "yes",
        "name": "École du Stade"
      },
      "geometry": {
        "type": "Polygon",
        "coordinates": [
          [
            [
              2.4893358,
              48.9056346
            ],
            [
              2.4891389,
              48.9054225
            ],
            [
              2.489343,
              48.9052204
            ],
            [
              2.4887299,
              48.9047892
            ],
            [
              2.488971,
              48.9045599
            ],
            [
              2.4899021,
              48.9052201
            ],
            [
              2.4893358,
              48.9056346
            ]
          ]
        ]
      },
      "id": "way/1034103430"
    },
    {
      "type": "Feature",
      "properties": {
        "@id": "way/1034103433",
        "amenity": "school",
        "area": "yes",
        "name": "Groupe scolaire Léo Lagrange"
      },
      "geometry": {
        "type": "Polygon",
        "coordinates": [
          [
            [
              2.4891703,
              48.9062422
            ],
            [
              2.4893124,
              48.9059945
            ],
            [
              2.4895256,
              48.9057061
            ],
            [
              2.4899613,
              48.9053568
            ],
            [
              2.4907151,
              48.9056371
            ],
            [
              2.4904611,
              48.906341
            ],
            [
              2.490264,
              48.9064352
            ],
            [
              2.4892352,
              48.9062828
            ],
            [
              2.4891703,
              48.9062422
            ]
          ]
        ]
      },
      "id": "way/1034103433"
    },
    {
      "type": "Feature",
      "properties": {
        "@id": "way/1034103434",
        "amenity": "school",
        "area": "yes",
        "name": "Lycée Léo Lagrange"
      },
      "geometry": {
        "type": "Polygon",
        "coordinates": [
          [
            [
              2.4904611,
              48.906341
            ],
            [
              2.4907151,
              48.9056371
            ],
            [
              2.4916333,
              48.9058152
            ],
            [
              2.4913355,
              48.9065765
            ],
            [
              2.4904185,
              48.9064534
            ],
            [
              2.4904611,
              48.906341
            ]
          ]
        ]
      },
      "id": "way/1034103434"
    },
    {
      "type": "Feature",
      "properties": {
        "@id": "way/1034106959",
        "amenity": "school",
        "name": "Groupe scolaire Camille Claudel",
        "ref:UAI": "0932700E",
        "school:FR": "maternelle"
      },
      "geometry": {
        "type": "Polygon",
        "coordinates": [
          [
            [
              2.4878545,
              48.9025967
            ],
            [
              2.4878038,
              48.9024269
            ],
            [
              2.4877235,
              48.9022806
            ],
            [
              2.4875474,
              48.9021121
            ],
            [
              2.4880077,
              48.9019862
            ],
            [
              2.4879675,
              48.9017059
            ],
            [
              2.4882484,
              48.9016721
            ],
            [
              2.488743,
              48.9016125
            ],
            [
              2.4893219,
              48.9024541
            ],
            [
              2.4890061,
              48.902556
            ],
            [
              2.48903,
              48.9025936
            ],
            [
              2.4886147,
              48.9027117
            ],
            [
              2.4884385,
              48.9024486
            ],
            [
              2.4879538,
              48.9026843
            ],
            [
              2.4878545,
              48.9025967
            ]
          ]
        ]
      },
      "id": "way/1034106959"
    },
    {
      "type": "Feature",
      "properties": {
        "@id": "way/1034114086",
        "amenity": "school",
        "name": "Groupe scolaire Salengro Bethinger"
      },
      "geometry": {
        "type": "Polygon",
        "coordinates": [
          [
            [
              2.4762021,
              48.8973092
            ],
            [
              2.475549,
              48.8973571
            ],
            [
              2.475537,
              48.8973762
            ],
            [
              2.4755392,
              48.8974462
            ],
            [
              2.4744917,
              48.8975598
            ],
            [
              2.4743153,
              48.8975552
            ],
            [
              2.4739684,
              48.8971266
            ],
            [
              2.4745645,
              48.896923
            ],
            [
              2.4745497,
              48.8968939
            ],
            [
              2.4747321,
              48.8968487
            ],
            [
              2.4749018,
              48.8968067
            ],
            [
              2.4748536,
              48.8966903
            ],
            [
              2.474999,
              48.8966536
            ],
            [
              2.4750698,
              48.896796
            ],
            [
              2.4752102,
              48.8969923
            ],
            [
              2.4763212,
              48.8968145
            ],
            [
              2.476862,
              48.8967765
            ],
            [
              2.4769878,
              48.896836
            ],
            [
              2.4770282,
              48.8971311
            ],
            [
              2.476229,
              48.897209
            ],
            [
              2.4762021,
              48.8973092
            ]
          ]
        ]
      },
      "id": "way/1034114086"
    },
    {
      "type": "Feature",
      "properties": {
        "@id": "way/1034123849",
        "amenity": "school",
        "building": "public",
        "name": "École Maternelle Guillaume Appolinaire",
        "school:FR": "maternelle",
        "source": "cadastre-dgi-fr source : Direction Générale des Impôts - Cadastre. Mise à jour : 2010"
      },
      "geometry": {
        "type": "Polygon",
        "coordinates": [
          [
            [
              2.4831368,
              48.9020195
            ],
            [
              2.4828933,
              48.9015394
            ],
            [
              2.4828483,
              48.9015434
            ],
            [
              2.48268,
              48.9012905
            ],
            [
              2.4828663,
              48.901255
            ],
            [
              2.4829805,
              48.9013537
            ],
            [
              2.48329,
              48.9013053
            ],
            [
              2.4833231,
              48.9014387
            ],
            [
              2.4830136,
              48.9015157
            ],
            [
              2.4830797,
              48.9016224
            ],
            [
              2.4831698,
              48.9018239
            ],
            [
              2.483284,
              48.9017785
            ],
            [
              2.4833271,
              48.9018498
            ],
            [
              2.4831939,
              48.9018693
            ],
            [
              2.4831848,
              48.9019128
            ],
            [
              2.483275,
              48.901895
            ],
            [
              2.483302,
              48.9019661
            ],
            [
              2.483248,
              48.901978
            ],
            [
              2.483263,
              48.9019977
            ],
            [
              2.4831368,
              48.9020195
            ]
          ]
        ]
      },
      "id": "way/1034123849"
    },
    {
      "type": "Feature",
      "properties": {
        "@id": "way/1034123850",
        "amenity": "school",
        "area": "yes",
        "name": "Groupe scolaire Guillaume Appolinaire"
      },
      "geometry": {
        "type": "Polygon",
        "coordinates": [
          [
            [
              2.4830372,
              48.9020551
            ],
            [
              2.4826272,
              48.9012103
            ],
            [
              2.4831967,
              48.9010771
            ],
            [
              2.4831474,
              48.9012031
            ],
            [
              2.4831334,
              48.9012384
            ],
            [
              2.4831121,
              48.9012897
            ],
            [
              2.4830977,
              48.9013249
            ],
            [
              2.4832088,
              48.9013074
            ],
            [
              2.483372,
              48.9012791
            ],
            [
              2.4836467,
              48.9019531
            ],
            [
              2.4834046,
              48.9019835
            ],
            [
              2.4830372,
              48.9020551
            ]
          ]
        ]
      },
      "id": "way/1034123850"
    },
    {
      "type": "Feature",
      "properties": {
        "@id": "way/1389257584",
        "amenity": "school",
        "name": "École Assomption de Bondy"
      },
      "geometry": {
        "type": "Polygon",
        "coordinates": [
          [
            [
              2.4909993,
              48.9046807
            ],
            [
              2.4909336,
              48.9046727
            ],
            [
              2.4909121,
              48.9046287
            ],
            [
              2.4914566,
              48.9041976
            ],
            [
              2.4919059,
              48.9042593
            ],
            [
              2.491934,
              48.9045828
            ],
            [
              2.4919327,
              48.9046498
            ],
            [
              2.4918321,
              48.9048147
            ],
            [
              2.4909993,
              48.9046807
            ]
          ]
        ]
      },
      "id": "way/1389257584"
    },
    {
      "type": "Feature",
      "properties": {
        "@id": "way/1453877249",
        "amenity": "school",
        "education": "school",
        "name": "Groupe scolaire Noue Caillet"
      },
      "geometry": {
        "type": "Polygon",
        "coordinates": [
          [
            [
              2.4788413,
              48.9124091
            ],
            [
              2.4787298,
              48.9119852
            ],
            [
              2.4794914,
              48.9118893
            ],
            [
              2.479407,
              48.9115996
            ],
            [
              2.4793931,
              48.9113792
            ],
            [
              2.4796088,
              48.9113794
            ],
            [
              2.4801498,
              48.9116344
            ],
            [
              2.4807083,
              48.9117298
            ],
            [
              2.4811463,
              48.9119221
            ],
            [
              2.4812098,
              48.9121254
            ],
            [
              2.481158,
              48.9121316
            ],
            [
              2.480117,
              48.9122563
            ],
            [
              2.4800911,
              48.9122565
            ],
            [
              2.4794522,
              48.9123359
            ],
            [
              2.4788413,
              48.9124091
            ]
          ]
        ]
      },
      "id": "way/1453877249"
    },
    {
      "type": "Feature",
      "properties": {
        "@id": "way/1453877251",
        "amenity": "school",
        "building": "public",
        "name": "Ecole élémentarie Roger Salengro",
        "ref:UAI": "0932265G",
        "school:FR": "primaire"
      },
      "geometry": {
        "type": "Polygon",
        "coordinates": [
          [
            [
              2.4745595,
              48.8975098
            ],
            [
              2.4745466,
              48.8974262
            ],
            [
              2.4753081,
              48.8973626
            ],
            [
              2.4754205,
              48.8973532
            ],
            [
              2.4754316,
              48.8973522
            ],
            [
              2.4754365,
              48.8974302
            ],
            [
              2.4745595,
              48.8975098
            ]
          ]
        ]
      },
      "id": "way/1453877251"
    },
    {
      "type": "Feature",
      "properties": {
        "@id": "node/276997368",
        "amenity": "school"
      },
      "geometry": {
        "type": "Point",
        "coordinates": [
          2.4808463,
          48.9120101
        ]
      },
      "id": "node/276997368"
    },
    {
      "type": "Feature",
      "properties": {
        "@id": "node/276997664",
        "addr:housenumber": "34",
        "amenity": "school"
      },
      "geometry": {
        "type": "Point",
        "coordinates": [
          2.4793529,
          48.9122075
        ]
      },
      "id": "node/276997664"
    },
    {
      "type": "Feature",
      "properties": {
        "@id": "node/2291424915",
        "amenity": "school",
        "name": "École maternelle Henri Sellier",
        "operator:type": "public",
        "ref:UAI": "0930430M",
        "school:FR": "maternelle",
        "source": "data.gouv.fr:Ministère de l'Éducation nationale, de la Jeunesse et de la Vie associative - 05/2012"
      },
      "geometry": {
        "type": "Point",
        "coordinates": [
          2.4926578,
          48.900461
        ]
      },
      "id": "node/2291424915"
    },
    {
      "type": "Feature",
      "properties": {
        "@id": "node/4614269454",
        "addr:city": "Bondy",
        "addr:housenumber": "77",
        "amenity": "school",
        "name": "Lycée général et technologique Jean Renoir",
        "operator:type": "public",
        "ref:UAI": "0930118Y",
        "school:FR": "lycée",
        "source": "data.gouv.fr:Éducation Nationale - 05/2016"
      },
      "geometry": {
        "type": "Point",
        "coordinates": [
          2.4746124,
          48.9036769
        ]
      },
      "id": "node/4614269454"
    },
    {
      "type": "Feature",
      "properties": {
        "@id": "node/4614269455",
        "addr:city": "Bondy",
        "addr:housenumber": "11",
        "amenity": "school",
        "contact:email": "ce.0931711e@ac-creteil.fr",
        "contact:phone": "+33 1 48 02 58 00",
        "contact:website": "http://jean-renoir-bondy.info/",
        "name": "Collège Lycée Jean Renoir",
        "operator:type": "public",
        "ref:FR:SIRET": "19931711600010",
        "ref:UAI": "0931711E",
        "school:FR": "collège",
        "source": "data.gouv.fr:Éducation Nationale - 05/2016",
        "start_date": "1977-03-14"
      },
      "geometry": {
        "type": "Point",
        "coordinates": [
          2.4736528,
          48.9028187
        ]
      },
      "id": "node/4614269455"
    },
    {
      "type": "Feature",
      "properties": {
        "@id": "node/9019005966",
        "addr:housenumber": "1",
        "addr:street": "Rue Éric Tabarly",
        "amenity": "school",
        "contact:email": "ce.0932717Y@ac-creteil.fr",
        "contact:phone": "+33 148474115",
        "name": "Collège privé La plume de l'éducation",
        "operator:type": "private",
        "ref:FR:SIRET": "80775035100023",
        "ref:UAI": "0932717Y",
        "school:FR": "collège",
        "source": "Ministère de l'Éducation nationale, de l'Enseignement supérieur et de la Recherche - 2025-12",
        "start_date": "2018-01-01"
      },
      "geometry": {
        "type": "Point",
        "coordinates": [
          2.4819842,
          48.9123687
        ]
      },
      "id": "node/9019005966"
    },
    {
      "type": "Feature",
      "properties": {
        "@id": "node/11279655446",
        "amenity": "school"
      },
      "geometry": {
        "type": "Point",
        "coordinates": [
          2.4771671,
          48.8955946
        ]
      },
      "id": "node/11279655446"
    }
  ]
}